NORAD_CAT_ID,OBJECT_NAME,OBJECT_TYPE,EPOCH,MEAN_MOTION,ECCENTRICITY,INCLINATION,RA_OF_ASC_NODE,ARG_OF_PERICENTER,MEAN_ANOMALY,BSTAR,MEAN_MOTION_DOT,MEAN_MOTION_DDOT,TLE_LINE0,TLE_LINE1,TLE_LINE2,SEMIMAJOR_AXIS,PERIOD,APOGEE,PERIGEE,DECAYED
53424.0,STARLINK-4532,PAYLOAD,2022-08-15 18:00:00,15.85825228,0.0019405999999999,53.2175,220.7503,52.3676,16.7942,-0.0051378,-0.01152322,0.0,0 STARLINK-4532,1 53424U 22097AN  22227.75001157 -.01152322  00000-0 -51378-2 0  9993,2 53424  53.2175 220.7503 0019406  52.3676  16.7942 15.85825228  1300,6692.139,90.804,326.991,301.017,0.0
53424.0,STARLINK-4532,PAYLOAD,2022-08-16 04:00:01,15.84775964,0.0015434,53.2176,218.6519,51.1501,237.391,-0.0057537,-0.01231135,0.0,0 STARLINK-4532,1 53424U 22097AN  22228.16668981 -.01231135  00000-0 -57537-2 0  9996,2 53424  53.2176 218.6519 0015434  51.1501 237.3910 15.84775964  1367,6695.093000000003,90.865,327.291,306.624,0.0
53424.0,STARLINK-4532,PAYLOAD,2022-08-16 12:00:00,15.83883435,0.0011745999999999,53.2173,216.9757,48.074,342.6962,-0.0057944,-0.01185929,0.0,0 STARLINK-4532,1 53424U 22097AN  22228.50001157 -.01185929  00000-0 -57944-2 0  9991,2 53424  53.2173 216.9757 0011746  48.0740 342.6962 15.83883435  1416,6697.608,90.916,327.34,311.606,0.0
53424.0,STARLINK-4532,PAYLOAD,2022-08-16 14:00:01,15.8366922,0.0011007999999999,53.2173,216.5562,47.3767,98.8022,-0.0058885,-0.01191067,0.0,0 STARLINK-4532,1 53424U 22097AN  22228.58334491 -.01191067  00000-0 -58885-2 0  9994,2 53424  53.2173 216.5562 0011008  47.3767  98.8022 15.83669220  1307,6698.212,90.928,327.45,312.703,0.0
53424.0,STARLINK-4532,PAYLOAD,2022-08-16 22:00:00,15.82824098,0.0007917,53.2173,214.8805,42.0297,205.1258,-0.0063672,-0.01227907,0.0,0 STARLINK-4532,1 53424U 22097AN  22228.91667824 -.01227907  00000-0 -63672-2 0  9993,2 53424  53.2173 214.8805 0007917  42.0297 205.1258 15.82824098  1301,6700.596,90.977,327.765,317.156,0.0
53424.0,STARLINK-4532,PAYLOAD,2022-08-17 04:00:00,15.8216835,0.0006144,53.2174,213.628,35.5823,196.627,-0.0065213,-0.0121821,0.0,0 STARLINK-4532,1 53424U 22097AN  22229.16667824 -.01218210  00000-0 -65213-2 0  9991,2 53424  53.2174 213.6280 0006144  35.5823 196.6270 15.82168350  1523,6702.446999999999,91.014,328.43,320.194,0.0
53424.0,STARLINK-4532,PAYLOAD,2022-08-17 14:00:01,15.81064851,0.0004133,53.2173,211.54,14.1916,71.8096,-0.0066783,-0.01186434,0.0,0 STARLINK-4532,1 53424U 22097AN  22229.58334491 -.01186434  00000-0 -66783-2 0  9993,2 53424  53.2173 211.5400 0004133  14.1916  71.8096 15.81064851  1301,6705.565,91.078,330.202,324.659,0.0
53424.0,STARLINK-4532,PAYLOAD,2022-08-18 06:00:02,15.79338421,0.0003458999999999,53.2176,208.2073,4.7118,276.0171,-0.007336,-0.01200779,0.0,0 STARLINK-4532,1 53424U 22097AN  22230.25002315 -.01200779  00000-0 -73360-2 0  9994,2 53424  53.2176 208.2073 0003459   4.7118 276.0171 15.79338421  1691,6710.451,91.177,334.63699999999994,329.995,0.0
53424.0,STARLINK-4532,PAYLOAD,2022-08-18 14:00:01,15.78472374,0.0003371,53.2175,206.543,343.1516,33.2791,-0.0076381,-0.01201519,0.0,0 STARLINK-4532,1 53424U 22097AN  22230.58334491 -.01201519  00000-0 -76381-2 0  9992,2 53424  53.2175 206.5430 0003371 343.1516  33.2791 15.78472374  1307,6712.905,91.227,337.033,332.50699999999995,0.0
53424.0,STARLINK-4532,PAYLOAD,2022-08-18 20:00:01,15.77815307,0.0003483,53.2172,205.2954,0.1865,357.3899,-0.0078129,-0.01193936,0.0,0 STARLINK-4532,1 53424U 22097AN  22230.83334491 -.01193936  00000-0 -78129-2 0  9995,2 53424  53.2172 205.2954 0003483   0.1865 357.3899 15.77815307  1789,6714.769,91.265,338.973,334.295,0.0
53424.0,STARLINK-4532,PAYLOAD,2022-08-18 22:00:00,15.77598633,0.0003631,53.2175,204.8803,3.7591,107.4001,-0.0078796,-0.01192665,0.0,0 STARLINK-4532,1 53424U 22097AN  22230.91667824 -.01192665  00000-0 -78796-2 0  9991,2 53424  53.2175 204.8803 0003631   3.7591 107.4001 15.77598633  1307,6715.384,91.278,339.6869999999999,334.81,0.0
53424.0,STARLINK-4532,PAYLOAD,2022-08-19 12:00:00,15.76084431,3.4899999999999995e-05,53.2173,201.9799,320.6765,223.7412,-0.0085087999999999,-0.01200374,0.0,0 STARLINK-4532,1 53424U 22097AN  22231.50001157 -.01200374  00000-0 -85088-2 0  9997,2 53424  53.2173 201.9799 0000349 320.6765 223.7412 15.76084431  1891,6719.684,91.366,341.784,341.315,0.0
53424.0,STARLINK-4532,PAYLOAD,2022-08-19 14:00:01,15.75859146,2.33e-05,53.2174,201.5651,35.8773,261.6052,-0.0084746,-0.01185475,0.0,0 STARLINK-4532,1 53424U 22097AN  22231.58334491 -.01185475  00000-0 -84746-2 0  9999,2 53424  53.2174 201.5651 0000233  35.8773 261.6052 15.75859146  1300,6720.324000000001,91.379,342.346,342.033,0.0
53424.0,STARLINK-4532,PAYLOAD,2022-08-19 22:00:00,15.74995543,0.0001074,53.2177,199.9091,56.3914,332.6854,-0.0088562,-0.01192047,0.0,0 STARLINK-4532,1 53424U 22097AN  22231.91667824 -.01192047  00000-0 -88562-2 0  9998,2 53424  53.2177 199.9091 0001074  56.3914 332.6854 15.74995543  1300,6722.781,91.429,345.36800000000005,343.9240000000001,0.0
53424.0,STARLINK-4532,PAYLOAD,2022-08-20 12:00:00,15.73412375,9.22e-05,53.2172,197.0194,64.8684,32.0068,-0.0022429,-0.00306949,0.0,0 STARLINK-4532,1 53424U 22097AN  22232.50001157 -.00306949  00000-0 -22429-2 0  9992,2 53424  53.2172 197.0194 0000922  64.8684  32.0068 15.73412375  2054,6727.29,91.521,349.775,348.534,0.0
53424.0,STARLINK-4532,PAYLOAD,2022-08-20 14:00:01,15.73267701,0.0001065,53.2174,196.6064,65.3323,143.8585,-0.00075219,-0.00105175,0.0,0 STARLINK-4532,1 53424U 22097AN  22232.58334491 -.00105175  00000-0 -75219-3 0  9994,2 53424  53.2174 196.6064 0001065  65.3323 143.8585 15.73267701  1305,6727.7019999999975,91.529,350.284,348.851,0.0
53424.0,STARLINK-4532,PAYLOAD,2022-08-20 20:00:01,15.73204664,0.0001135,53.2172,195.368,72.773,113.2135,-8.5527e-06,-1.82e-05,0.0,0 STARLINK-4532,1 53424U 22097AN  22232.83335648 -.00001820  00000-0 -85527-5 0  9994,2 53424  53.2172 195.3680 0001135  72.7730 113.2135 15.73204664  2105,6727.882,91.533,350.51,348.983,0.0
53424.0,STARLINK-4532,PAYLOAD,2022-08-20 22:00:00,15.7320387,0.0001149,53.2175,194.9559,71.7363,226.418,1.4282e-05,1.385e-05,0.0,0 STARLINK-4532,1 53424U 22097AN  22232.91667824  .00001385  00000-0  14282-4 0  9990,2 53424  53.2175 194.9559 0001149  71.7363 226.4180 15.73203870  1300,6727.884,91.533,350.522,348.976,0.0
53424.0,STARLINK-4532,PAYLOAD,2022-08-21 04:00:00,15.73250311,0.0001252999999999,53.2194,193.7227,75.1853,199.7067,-0.00071096,-0.0009943999999999,0.0,0 STARLINK-4532,1 53424U 22097AN  22233.16667824 -.00099440  00000-0 -71096-3 0  9994,2 53424  53.2194 193.7227 0001253  75.1853 199.7067 15.73250311  2150,6727.752,91.53,350.46,348.774,0.0
53424.0,STARLINK-4532,PAYLOAD,2022-08-21 12:00:00,15.73229532,0.0001230999999999,53.2195,192.0729,74.17,289.6826,-0.00038041,-0.00053734,0.0,0 STARLINK-4532,1 53424U 22097AN  22233.50001157 -.00053734  00000-0 -38041-3 0  9992,2 53424  53.2195 192.0729 0001231  74.1700 289.6826 15.73229532  2205,6727.811,91.531,350.504,348.848,0.0
53424.0,STARLINK-4532,PAYLOAD,2022-08-21 14:00:01,15.73238814,0.0001202,53.2198,191.6599,78.4695,37.6162,-0.00062637,-0.00087759,0.0,0 STARLINK-4532,1 53424U 22097AN  22233.58334491 -.00087759  00000-0 -62637-3 0  9992,2 53424  53.2198 191.6599 0001202  78.4695  37.6162 15.73238814  1303,6727.785,91.531,350.458,348.841,0.0
53424.0,STARLINK-4532,PAYLOAD,2022-08-21 22:00:00,15.73170248,0.0001139999999999,53.22,190.0099,85.5052,119.5083,0.00030809,0.00042783,0.0,0 STARLINK-4532,1 53424U 22097AN  22233.91667824  .00042783  00000-0  30809-3 0  9990,2 53424  53.2200 190.0099 0001140  85.5052 119.5083 15.73170248  1300,6727.98,91.535,350.612,349.07800000000015,0.0
53424.0,STARLINK-4532,PAYLOAD,2022-08-22 04:00:00,15.73185714,0.0001230999999999,53.2196,188.7745,73.8679,107.8208,0.00020087,0.00027646,0.0,0 STARLINK-4532,1 53424U 22097AN  22234.16667824  .00027646  00000-0  20087-3 0  9996,2 53424  53.2196 188.7745 0001231  73.8679 107.8208 15.73185714  2317,6727.936,91.534,350.629,348.973,0.0
53424.0,STARLINK-4532,PAYLOAD,2022-08-22 12:00:00,15.73241664,0.0001267,53.2192,187.1246,77.3862,193.2137,-0.00070248,-0.00098239,0.0,0 STARLINK-4532,1 53424U 22097AN  22234.50001157 -.00098239  00000-0 -70248-3 0  9997,2 53424  53.2192 187.1246 0001267  77.3862 193.2137 15.73241664  1309,6727.776,91.531,350.494,348.789,0.0
53424.0,STARLINK-4532,PAYLOAD,2022-08-22 20:00:01,15.73157579,0.0001381,53.2195,185.474,89.456,270.0754,0.00048194,0.00067438,0.0,0 STARLINK-4532,1 53424U 22097AN  22234.83334491  .00067438  00000-0  48194-3 0  9993,2 53424  53.2195 185.4740 0001381  89.4560 270.0754 15.73157579  2411,6728.016,91.536,350.81,348.952,0.0
53424.0,STARLINK-4532,PAYLOAD,2022-08-22 22:00:00,15.73184243,0.0001392,53.2197,185.0621,89.2406,22.5073,0.00022963,0.00031707,0.0,0 STARLINK-4532,1 53424U 22097AN  22234.91667824  .00031707  00000-0  22963-3 0  9997,2 53424  53.2197 185.0621 0001392  89.2406  22.5073 15.73184243  1305,6727.94,91.534,350.742,348.869,0.0
53424.0,STARLINK-4532,PAYLOAD,2022-08-23 04:00:00,15.73192138,0.0001367,53.2196,183.8268,79.8546,8.5811,0.00014948,0.00020402,0.0,0 STARLINK-4532,1 53424U 22097AN  22235.16667824  .00020402  00000-0  14948-3 0  9999,2 53424  53.2196 183.8268 0001367  79.8546   8.5811 15.73192138  2474,6727.918000000002,91.534,350.702,348.86300000000006,0.0
53424.0,STARLINK-4532,PAYLOAD,2022-08-23 14:00:01,15.73235186,0.0001185,53.2201,181.7638,84.4331,205.1725,-0.00057487,-0.00080649,0.0,0 STARLINK-4532,1 53424U 22097AN  22235.58334491 -.00080649  00000-0 -57487-3 0  9992,2 53424  53.2201 181.7638 0001185  84.4331 205.1725 15.73235186  1302,6727.795,91.531,350.457,348.86300000000006,0.0
53424.0,STARLINK-4532,PAYLOAD,2022-08-23 20:00:01,15.73173418,0.0001132,53.2203,180.526,88.7929,177.5217,0.00041723,0.00058275,0.0,0 STARLINK-4532,1 53424U 22097AN  22235.83334491  .00058275  00000-0  41723-3 0  9994,2 53424  53.2203 180.5260 0001132  88.7929 177.5217 15.73173418  2571,6727.971,91.535,350.598,349.074,0.0
